[{"OBJECT_NAME":"ONEWEB-0007","OBJECT_ID":"2019-010D","EPOCH":"2026-03-09T15:04:07.974912","MEAN_MOTION":13.15546142,"ECCENTRICITY":0.0001539,"INCLINATION":87.8938,"RA_OF_ASC_NODE":279.1029,"ARG_OF_PERICENTER":100.661,"MEAN_ANOMALY":259.4694,"EPHEMERIS_TYPE":0,"CLASSIFICATION_TYPE":"U","NORAD_CAT_ID":44060,"ELEMENT_SET_NO":999,"REV_AT_EPOCH":33828,"BSTAR":-7.1193e-5,"MEAN_MOTION_DOT":-1.4e-7,"MEAN_MOTION_DDOT":0},{"OBJECT_NAME":"DELTA 1 DEB","OBJECT_ID":"1975-052LA","EPOCH":"2026-03-09T10:19:11.376192","MEAN_MOTION":13.12865654,"ECCENTRICITY":0.01720197,"INCLINATION":99.757,"RA_OF_ASC_NODE":116.5999,"ARG_OF_PERICENTER":164.1265,"MEAN_ANOMALY":323.5013,"EPHEMERIS_TYPE":0,"CLASSIFICATION_TYPE":"U","NORAD_CAT_ID":26846,"ELEMENT_SET_NO":999,"REV_AT_EPOCH":38334,"BSTAR":0.00062604183,"MEAN_MOTION_DOT":2.05e-6,"MEAN_MOTION_DDOT":0}]
